{
  "type": "FeatureCollection",
  "features": [
    {
      "type": "Feature",
      "properties": {
        "norad_id": 67061,
        "name": "HULIANWANG DIGUI-121",
        "group": "last-30-days",
        "lat": -0.5457039454207846,
        "lon": -15.897796156157579,
        "alt_km": 806.7178640454913,
        "timestamp": "2025-12-19T06:59:42.653659+00:00",
        "meta_object_name": "HULIANWANG DIGUI-121",
        "meta_object_id": "2025-295C",
        "meta_epoch": "2025-12-15T17:12:22.292352",
        "meta_mean_motion": 14.25729079,
        "meta_eccentricity": 0.00132682,
        "meta_inclination": 50.0012,
        "meta_ra_of_asc_node": 359.6606,
        "meta_arg_of_pericenter": 256.3366,
        "meta_mean_anomaly": 103.6071,
        "meta_ephemeris_type": 0,
        "meta_classification_type": "U",
        "meta_norad_cat_id": 67061,
        "meta_element_set_no": 999,
        "meta_rev_at_epoch": 54,
        "meta_bstar": 6.6638352e-05,
        "meta_mean_motion_dot": -1e-08,
        "meta_mean_motion_ddot": 0,
        "tle_line1": "1 67061U 25295C   25349.71692468 -.00000001  00000+0  66638-4 0  9993",
        "tle_line2": "2 67061  50.0012 359.6606 0013268 256.3366 103.6071 14.25729079   549"
      },
      "geometry": {
        "type": "Point",
        "coordinates": [
          -15.897796156157579,
          -0.5457039454207846
        ]
      }
    },
    {
      "type": "Feature",
      "properties": {
        "norad_id": 67062,
        "name": "HULIANWANG DIGUI-122",
        "group": "last-30-days",
        "lat": 0.10067497393702413,
        "lon": -15.342469418004569,
        "alt_km": 805.4582012529909,
        "timestamp": "2025-12-19T06:59:42.653669+00:00",
        "meta_object_name": "HULIANWANG DIGUI-122",
        "meta_object_id": "2025-295D",
        "meta_epoch": "2025-12-18T22:35:01.320864",
        "meta_mean_motion": 14.25754897,
        "meta_eccentricity": 0.00131647,
        "meta_inclination": 50.0054,
        "meta_ra_of_asc_node": 346.0535,
        "meta_arg_of_pericenter": 275.0789,
        "meta_mean_anomaly": 84.8622,
        "meta_ephemeris_type": 0,
        "meta_classification_type": "U",
        "meta_norad_cat_id": 67062,
        "meta_element_set_no": 999,
        "meta_rev_at_epoch": 100,
        "meta_bstar": 0.0001348212,
        "meta_mean_motion_dot": 1.62e-06,
        "meta_mean_motion_ddot": 0,
        "tle_line1": "1 67062U 25295D   25352.94098751  .00000162  00000+0  13482-3 0  9993",
        "tle_line2": "2 67062  50.0054 346.0535 0013164 275.0789  84.8622 14.25754897  1009"
      },
      "geometry": {
        "type": "Point",
        "coordinates": [
          -15.342469418004569,
          0.10067497393702413
        ]
      }
    },
    {
      "type": "Feature",
      "properties": {
        "norad_id": 67063,
        "name": "HULIANWANG DIGUI-123",
        "group": "last-30-days",
        "lat": 2.7668871359050273,
        "lon": -13.105884995293165,
        "alt_km": 805.3825164962291,
        "timestamp": "2025-12-19T06:59:42.653680+00:00",
        "meta_object_name": "HULIANWANG DIGUI-123",
        "meta_object_id": "2025-295E",
        "meta_epoch": "2025-12-18T22:34:05.596320",
        "meta_mean_motion": 14.25887768,
        "meta_eccentricity": 0.0012481,
        "meta_inclination": 50.0061,
        "meta_ra_of_asc_node": 346.0525,
        "meta_arg_of_pericenter": 274.2499,
        "meta_mean_anomaly": 85.6989,
        "meta_ephemeris_type": 0,
        "meta_classification_type": "U",
        "meta_norad_cat_id": 67063,
        "meta_element_set_no": 999,
        "meta_rev_at_epoch": 100,
        "meta_bstar": 0.00013963355,
        "meta_mean_motion_dot": 1.75e-06,
        "meta_mean_motion_ddot": 0,
        "tle_line1": "1 67063U 25295E   25352.94034255  .00000175  00000+0  13963-3 0  9991",
        "tle_line2": "2 67063  50.0061 346.0525 0012481 274.2499  85.6989 14.25887768  1006"
      },
      "geometry": {
        "type": "Point",
        "coordinates": [
          -13.105884995293165,
          2.7668871359050273
        ]
      }
    },
    {
      "type": "Feature",
      "properties": {
        "norad_id": 67064,
        "name": "HULIANWANG DIGUI-124",
        "group": "last-30-days",
        "lat": 3.9767078662298303,
        "lon": -12.102242237970556,
        "alt_km": 806.0901334790124,
        "timestamp": "2025-12-19T06:59:42.653692+00:00",
        "meta_object_name": "HULIANWANG DIGUI-124",
        "meta_object_id": "2025-295F",
        "meta_epoch": "2025-12-18T00:41:45.177504",
        "meta_mean_motion": 14.25947801,
        "meta_eccentricity": 0.0012069,
        "meta_inclination": 50.0037,
        "meta_ra_of_asc_node": 349.8867,
        "meta_arg_of_pericenter": 265.6344,
        "meta_mean_anomaly": 94.3191,
        "meta_ephemeris_type": 0,
        "meta_classification_type": "U",
        "meta_norad_cat_id": 67064,
        "meta_element_set_no": 999,
        "meta_rev_at_epoch": 87,
        "meta_bstar": -0.00021481981,
        "meta_mean_motion_dot": -6.76e-06,
        "meta_mean_motion_ddot": 0,
        "tle_line1": "1 67064U 25295F   25352.02899511 -.00000676  00000+0 -21482-3 0  9998",
        "tle_line2": "2 67064  50.0037 349.8867 0012069 265.6344  94.3191 14.25947801   876"
      },
      "geometry": {
        "type": "Point",
        "coordinates": [
          -12.102242237970556,
          3.9767078662298303
        ]
      }
    },
    {
      "type": "Feature",
      "properties": {
        "norad_id": 67065,
        "name": "HULIANWANG DIGUI-125",
        "group": "last-30-days",
        "lat": 4.074820101194417,
        "lon": -12.019898081226287,
        "alt_km": 805.1586733339809,
        "timestamp": "2025-12-19T06:59:42.653704+00:00",
        "meta_object_name": "HULIANWANG DIGUI-125",
        "meta_object_id": "2025-295G",
        "meta_epoch": "2025-12-18T22:33:38.245536",
        "meta_mean_motion": 14.25953438,
        "meta_eccentricity": 0.00122793,
        "meta_inclination": 50.0011,
        "meta_ra_of_asc_node": 346.0362,
        "meta_arg_of_pericenter": 274.8465,
        "meta_mean_anomaly": 85.1046,
        "meta_ephemeris_type": 0,
        "meta_classification_type": "U",
        "meta_norad_cat_id": 67065,
        "meta_element_set_no": 999,
        "meta_rev_at_epoch": 100,
        "meta_bstar": 0.00013242128,
        "meta_mean_motion_dot": 1.58e-06,
        "meta_mean_motion_ddot": 0,
        "tle_line1": "1 67065U 25295G   25352.94002599  .00000158  00000+0  13242-3 0  9990",
        "tle_line2": "2 67065  50.0011 346.0362 0012279 274.8465  85.1046 14.25953438  1003"
      },
      "geometry": {
        "type": "Point",
        "coordinates": [
          -12.019898081226287,
          4.074820101194417
        ]
      }
    },
    {
      "type": "Feature",
      "properties": {
        "norad_id": 67066,
        "name": "HULIANWANG DIGUI-126",
        "group": "last-30-days",
        "lat": 7.008308005684324,
        "lon": -9.532595977485867,
        "alt_km": 805.2339766545765,
        "timestamp": "2025-12-19T06:59:42.653716+00:00",
        "meta_object_name": "HULIANWANG DIGUI-126",
        "meta_object_id": "2025-295H",
        "meta_epoch": "2025-12-18T22:32:36.658752",
        "meta_mean_motion": 14.26096405,
        "meta_eccentricity": 0.00114415,
        "meta_inclination": 50.0014,
        "meta_ra_of_asc_node": 346.0317,
        "meta_arg_of_pericenter": 271.9952,
        "meta_mean_anomaly": 87.9652,
        "meta_ephemeris_type": 0,
        "meta_classification_type": "U",
        "meta_norad_cat_id": 67066,
        "meta_element_set_no": 999,
        "meta_rev_at_epoch": 100,
        "meta_bstar": 0.00013188769,
        "meta_mean_motion_dot": 1.57e-06,
        "meta_mean_motion_ddot": 0,
        "tle_line1": "1 67066U 25295H   25352.93931318  .00000157  00000+0  13189-3 0  9999",
        "tle_line2": "2 67066  50.0014 346.0317 0011441 271.9952  87.9652 14.26096405  1002"
      },
      "geometry": {
        "type": "Point",
        "coordinates": [
          -9.532595977485867,
          7.008308005684324
        ]
      }
    },
    {
      "type": "Feature",
      "properties": {
        "norad_id": 67067,
        "name": "HULIANWANG DIGUI-127",
        "group": "last-30-days",
        "lat": 9.7032551011708,
        "lon": -7.203148750716078,
        "alt_km": 804.2224034148876,
        "timestamp": "2025-12-19T06:59:42.653726+00:00",
        "meta_object_name": "HULIANWANG DIGUI-127",
        "meta_object_id": "2025-295J",
        "meta_epoch": "2025-12-18T22:31:40.341504",
        "meta_mean_motion": 14.26250016,
        "meta_eccentricity": 0.00108631,
        "meta_inclination": 50.0053,
        "meta_ra_of_asc_node": 346.0354,
        "meta_arg_of_pericenter": 276.0281,
        "meta_mean_anomaly": 83.9395,
        "meta_ephemeris_type": 0,
        "meta_classification_type": "U",
        "meta_norad_cat_id": 67067,
        "meta_element_set_no": 999,
        "meta_rev_at_epoch": 100,
        "meta_bstar": -0.00028632511,
        "meta_mean_motion_dot": -8.52e-06,
        "meta_mean_motion_ddot": 0,
        "tle_line1": "1 67067U 25295J   25352.93866136 -.00000852  00000+0 -28633-3 0  9999",
        "tle_line2": "2 67067  50.0053 346.0354 0010863 276.0281  83.9395 14.26250016  1005"
      },
      "geometry": {
        "type": "Point",
        "coordinates": [
          -7.203148750716078,
          9.7032551011708
        ]
      }
    }
  ]
}